norad_id,name,regime,epoch,line1,line2,inclination,eccentricity,mean_motion,raan,arg_pericenter,mean_anomaly
36395,SDO,IGO,24344.38180222,1 36395U 10005A   24344.38180222 -.00000056  00000-0  00000-0 0    11\,2 36395  33.4885  94.8635 0002028 184.7662 194.6708  1.00270520 54506,33.4885,0.0002028,1.0027052,94.8635,184.7662,194.6708
36395,SDO,IGO,24345.46621104,1 36395U 10005A   24345.46621104 -.00000061  00000-0  00000-0 0    16\,2 36395  33.4910  94.8462 0002000 181.3593 229.5418  1.00270473 54513,33.491,0.0002,1.00270473,94.8462,181.3593,229.5418
36395,SDO,IGO,24345.66597174,1 36395U 10005A   24345.66597174 -.00000062  00000-0  00000-0 0    18\,2 36395  33.4915  94.8431 0002012 179.7553 303.2583  1.00270474 54518,33.4915,0.0002012,1.00270474,94.8431,179.7553,303.2583
36395,SDO,IGO,24350.45030581,1 36395U 10005A   24350.45030581 -.00000089  00000-0  00000-0 0    14\,2 36395  33.5022  94.7671 0001809 177.7735 232.3461  1.00270568 54562,33.5022,0.0001809,1.00270568,94.7671,177.7735,232.3461
36395,SDO,IGO,24352.29007493,1 36395U 10005A   24352.29007493 -.00000087  00000-0  00000-0 0    12\,2 36395  33.5062  94.7383 0001726 178.9895 175.2723  1.00270641 54573,33.5062,0.0001726,1.00270641,94.7383,178.9895,175.2723
36395,SDO,IGO,24353.30209479,1 36395U 10005A   24353.30209479 -.00000083  00000-0  00000+0 0  2942\,2 36395  33.5084  94.7226 0001692 179.5584 180.0348  1.00270699 54555,33.5084,0.0001692,1.00270699,94.7226,179.5584,180.0348
36395,SDO,IGO,24354.29204269,1 36395U 10005A   24354.29204269 -.00000077  00000-0  00000-0 0    13\,2 36395  33.5105  94.7074 0001673 180.8111 176.1457  1.00270753 54592,33.5105,0.0001673,1.00270753,94.7074,180.8111,176.1457
36395,SDO,IGO,24355.32024867,1 36395U 10005A   24355.32024867 -.00000072  00000-0  00000-0 0    17\,2 36395  33.5116  94.6917 0001576 181.8559 186.2703  1.00270120 54615,33.5116,0.0001576,1.0027012,94.6917,181.8559,186.2703
36395,SDO,IGO,24356.29308184,1 36395U 10005A   24356.29308184 -.00000068  00000-0  00000-0 0    16\,2 36395  33.5131  94.6768 0001668 199.3839 159.9214  1.00270319 54617,33.5131,0.0001668,1.00270319,94.6768,199.3839,159.9214
36395,SDO,IGO,24357.48797073,1 36395U 10005A   24357.48797073 -.00000065  00000-0  00000-0 0    14\,2 36395  33.5172  94.6589 0001664 184.1343 246.5206  1.00270487 54633,33.5172,0.0001664,1.00270487,94.6589,184.1343,246.5206
36395,SDO,IGO,24358.27063545,1 36395U 10005A   24358.27063545 -.00000064  00000-0  00000-0 0    11\,2 36395  33.5187  94.6471 0001723 183.2022 169.9884  1.00270502 54637,33.5187,0.0001723,1.00270502,94.6471,183.2022,169.9884
36395,SDO,IGO,24359.26785458,1 36395U 10005A   24359.26785458 -.00000065  00000-0  00000-0 0    16\,2 36395  33.5206  94.6319 0001739 185.2293 167.9485  1.00270482 54642,33.5206,0.0001739,1.00270482,94.6319,185.2293,167.9485
36395,SDO,IGO,24360.28382152,1 36395U 10005A   24360.28382152 -.00000067  00000-0  00000-0 0    16\,2 36395  33.5225  94.6166 0001765 186.7150 173.2176  1.00270424 54654,33.5225,0.0001765,1.00270424,94.6166,186.715,173.2176
36395,SDO,IGO,24361.29470372,1 36395U 10005A   24361.29470372 -.00000070  00000-0  00000-0 0    14\,2 36395  33.5244  94.6013 0001796 187.9991 176.8523  1.00270308 54674,33.5244,0.0001796,1.00270308,94.6013,187.9991,176.8523
36395,SDO,IGO,24362.29507038,1 36395U 10005A   24362.29507038 -.00000074  00000-0  00000-0 0    19\,2 36395  33.5263  94.5861 0001830 198.9276 167.0428  1.00270004 54682,33.5263,0.000183,1.00270004,94.5861,198.9276,167.0428
36395,SDO,IGO,24363.24980134,1 36395U 10005A   24363.24980134 -.00000076  00000-0  00000-0 0    19\,2 36395  33.5281  94.5716 0001912 208.1379 142.4776  1.00269778 54689,33.5281,0.0001912,1.00269778,94.5716,208.1379,142.4776
36395,SDO,IGO,24364.36075325,1 36395U 10005A   24364.36075325 -.00000079  00000-0  00000-0 0    13\,2 36395  33.5302  94.5546 0001897 198.8663 192.7950  1.00269823 54703,33.5302,0.0001897,1.00269823,94.5546,198.8663,192.795
36395,SDO,IGO,25001.24841030,1 36395U 10005A   25001.24841030 -.00000078  00000-0  00000-0 0    12,2 36395  33.5358  94.5099 0001977 193.7526 160.3224  1.00269480 54724,33.5358,0.0001977,1.0026948,94.5099,193.7526,160.3224
36395,SDO,IGO,25002.25049514,1 36395U 10005A   25002.25049514 -.00000075  00000-0  00000-0 0    18,2 36395  33.5377  94.4942 0001985 195.0417 160.7733  1.00269313 54739,33.5377,0.0001985,1.00269313,94.4942,195.0417,160.7733
36395,SDO,IGO,25003.45222448,1 36395U 10005A   25003.45222448 -.00000072  00000-0  00000-0 0    17,2 36395  33.5402  94.4752 0001980 191.6521 237.9731  1.00269182 54751,33.5402,0.000198,1.00269182,94.4752,191.6521,237.9731
36395,SDO,IGO,25004.24701946,1 36395U 10005A   25004.24701946 -.00000071  00000-0  00000-0 0    19,2 36395  33.5417  94.4627 0001963 191.8246 164.7112  1.00269067 54757,33.5417,0.0001963,1.00269067,94.4627,191.8246,164.7112
36395,SDO,IGO,25005.23174411,1 36395U 10005A   25005.23174411 -.00000072  00000-0  00000-0 0    11,2 36395  33.5438  94.4470 0001938 191.3503 160.6580  1.00268962 54767,33.5438,0.0001938,1.00268962,94.447,191.3503,160.658
36395,SDO,IGO,25006.24910385,1 36395U 10005A   25006.24910385 -.00000074  00000-0  00000-0 0    13,2 36395  33.5459  94.4307 0001916 189.2964 169.9654  1.00268892 54779,33.5459,0.0001916,1.00268892,94.4307,189.2964,169.9654
36395,SDO,IGO,25007.34814925,1 36395U 10005A   25007.34814925 -.00000080  00000-0  00000-0 0    15,2 36395  33.5482  94.4130 0001875 188.9809 207.0209  1.00268838 54799,33.5482,0.0001875,1.00268838,94.413,188.9809,207.0209
36395,SDO,IGO,25008.51994848,1 36395U 10005A   25008.51994848 -.00000087  00000-0  00000-0 0    15,2 36395  33.5508  94.3942 0001821 188.3969 270.6082  1.00268835 54804,33.5508,0.0001821,1.00268835,94.3942,188.3969,270.6082
36395,SDO,IGO,25009.35964289,1 36395U 10005A   25009.35964289 -.00000093  00000-0  00000-0 0    11,2 36395  33.5526  94.3808 0001796 187.9465 214.1767  1.00268838 54819,33.5526,0.0001796,1.00268838,94.3808,187.9465,214.1767
36395,SDO,IGO,25010.22618986,1 36395U 10005A   25010.22618986 -.00000098  00000-0  00000-0 0    14,2 36395  33.5545  94.3671 0001760 187.9096 167.0249  1.00268859 54813,33.5545,0.000176,1.00268859,94.3671,187.9096,167.0249
36395,SDO,IGO,25011.22945248,1 36395U 10005A   25011.22945248 -.00000102  00000-0  00000-0 0    15,2 36395  33.5567  94.3511 0001701 188.2243 168.8741  1.00268899 54824,33.5567,0.0001701,1.00268899,94.3511,188.2243,168.8741
36395,SDO,IGO,25015.22669574,1 36395U 10005A   25015.22669574 -.00000092  00000-0  00000-0 0    12,2 36395  33.5652  94.2886 0001528 191.7558 168.2931  1.00269123 54879,33.5652,0.0001528,1.00269123,94.2886,191.7558,168.2931
36395,SDO,IGO,25016.19146788,1 36395U 10005A   25016.19146788 -.00000086  00000-0  00000-0 0    19,2 36395  33.5672  94.2737 0001513 193.1785 155.1403  1.00269178 54877,33.5672,0.0001513,1.00269178,94.2737,193.1785,155.1403
36395,SDO,IGO,25017.23382969,1 36395U 10005A   25017.23382969 -.00000081  00000-0  00000-0 0    13,2 36395  33.5692  94.2577 0001515 194.8636 169.7340  1.00269226 54893,33.5692,0.0001515,1.00269226,94.2577,194.8636,169.734
36395,SDO,IGO,25018.23094929,1 36395U 10005A   25018.23094929 -.00000077  00000-0  00000-0 0    15,2 36395  33.5712  94.2424 0001520 196.5751 167.9696  1.00269260 54904,33.5712,0.000152,1.0026926,94.2424,196.5751,167.9696
36395,SDO,IGO,25019.21851332,1 36395U 10005A   25019.21851332 -.00000075  00000-0  00000-0 0    11,2 36395  33.5730  94.2274 0001536 198.0217 163.0205  1.00269273 54916,33.573,0.0001536,1.00269273,94.2274,198.0217,163.0205
36395,SDO,IGO,25021.20516787,1 36395U 10005A   25021.20516787 -.00000075  00000-0  00000-0 0    15,2 36395  33.5767  94.1970 0001603 198.0800 160.1191  1.00269249 54927,33.5767,0.0001603,1.00269249,94.197,198.08,160.1191
36395,SDO,IGO,25022.21065742,1 36395U 10005A   25022.21065742 -.00000077  00000-0  00000-0 0    19,2 36395  33.5785  94.1816 0001629 199.7701 161.3972  1.00269192 54941,33.5785,0.0001629,1.00269192,94.1816,199.7701,161.3972
36395,SDO,IGO,25026.20396688,1 36395U 10005A   25026.20396688 -.00000084  00000-0  00000-0 0    16,2 36395  33.5860  94.1202 0001777 206.6857 156.0082  1.00268723 54984,33.586,0.0001777,1.00268723,94.1202,206.6857,156.0082
36395,SDO,IGO,25029.17549512,1 36395U 10005A   25029.17549512 -.00000080  00000-0  00000+0 0  3211,2 36395  33.5909  94.0735 0001860 185.0387 170.5179  1.00276608 54977,33.5909,0.000186,1.00276608,94.0735,185.0387,170.5179
36395,SDO,IGO,25032.16321559,1 36395U 10005A   25032.16321559 -.00000073  00000-0  00000-0 0    11,2 36395  33.5971  94.0257 0001822 183.6830 170.4818  1.00276287 55030,33.5971,0.0001822,1.00276287,94.0257,183.683,170.4818
36395,SDO,IGO,25033.16989190,1 36395U 10005A   25033.16989190 -.00000074  00000-0  00000-0 0    14,2 36395  33.5993  94.0095 0001803 182.1977 175.3904  1.00276209 55044,33.5993,0.0001803,1.00276209,94.0095,182.1977,175.3904
36395,SDO,IGO,25035.16347767,1 36395U 10005A   25035.16347767 -.00000083  00000-0  00000+0 0  3241,2 36395  33.6037  93.9774 0001727 180.2953 177.0023  1.00276121 55037,33.6037,0.0001727,1.00276121,93.9774,180.2953,177.0023
36395,SDO,IGO,25039.16380058,1 36395U 10005A   25039.16380058 -.00000102  00000-0  00000-0 0    10,2 36395  33.6127  93.9134 0001452 180.4945 180.9689  1.00276192 55113,33.6127,0.0001452,1.00276192,93.9134,180.4945,180.9689
36395,SDO,IGO,25042.20407422,1 36395U 10005A   25042.20407422 -.00000091  00000-0  00000+0 0  3260,2 36395  33.6192  93.8658 0001321 181.0575 197.9833  1.00276386 55110,33.6192,0.0001321,1.00276386,93.8658,181.0575,197.9833
36395,SDO,IGO,25042.54602644,1 36395U 10005A   25042.54602644 -.00000089  00000-0  00000-0 0    18,2 36395  33.6201  93.8606 0001189 188.8879 313.5998  1.00276366 55147,33.6201,0.0001189,1.00276366,93.8606,188.8879,313.5998
36395,SDO,IGO,25044.18400947,1 36395U 10005A   25044.18400947 -.00000078  00000-0  00000+0 0  3270,2 36395  33.6234  93.8355 0001287 189.2596 184.5616  1.00276479 55131,33.6234,0.0001287,1.00276479,93.8355,189.2596,184.5616
